{
"type": "FeatureCollection",
"name": "bc_boundary_3005",
"crs": { "type": "name", "properties": { "name": "urn:ogc:def:crs:EPSG::3005" } },
"features": [
{"type":"Feature","properties":{"name":"British Columbia"},"geometry":{"type":"MultiPolygon","coordinates":[[[[1335280.665738263633102,1682874.454413296189159],[1393327.916218225844204,998852.184461285127327],[1395623.876523096114397,993812.290892392047681],[1399519.627622433472425,991104.432141254888847],[1400804.286353908246383,985963.067735718912445],[1402247.586019714130089,984399.501061245566234],[1407130.823227484477684,983801.111114807194099],[1412808.902260945178568,977004.818545661633834],[1412447.340875076828524,974885.338196874829009],[1400960.008813887601718,973568.908263040706515],[1402851.99115077033639,968632.919705422944389],[1403493.457959715975448,962959.107580917305313],[1406115.346335398964584,962410.113266154075973],[1408625.382524713408202,960655.360611074836925],[1415880.355995188467205,951078.579242662293836],[1419021.692552195861936,948093.714529683231376],[1421238.500930626410991,947442.203066322486848],[1424803.665929494891316,948817.988603619975038],[1435326.86482906434685,948568.674772286904044],[1437744.718149055028334,947774.75983972940594],[1444925.572895669844002,936054.935812660842203],[1448432.990481842542067,932757.561791415209882],[1465052.14727329229936,926520.691584910731763],[1464736.802262946031988,933768.867802727269009],[1465955.688275009859353,937389.152276834938675],[1471403.552197644487023,935253.961917961132713],[1479402.62905052350834,929526.651144280447625],[1481762.859522776212543,926198.562063070945442],[1482880.636696815490723,920015.905907771666534],[1485287.545062059303746,919414.37441508739721],[1489189.675806935410947,916235.974584926851094],[1490492.885308251949027,910287.986621622461826],[1493711.889222046826035,903643.045087465667166],[1495561.443526353919879,902231.016268038190901],[1502560.822184246266261,902213.307440256816335],[1504342.421835603890941,901296.311618686188012],[1508093.035501237027347,896877.422467745724134],[1509743.590810569003224,891297.833992994157597],[1516186.712872854433954,883535.910767802968621],[1517330.917441185330972,879804.892246851697564],[1515869.391588717699051,873924.528613467118703],[1520764.289495125645772,867592.527497834409587],[1522787.03101037023589,862880.128377932822332],[1526001.90293057076633,859240.110136185656302],[1525054.346594729227945,854431.053198075969703],[1525704.502511728089303,850924.570540170068853],[1527453.002530728001148,848563.449841162655503],[1529487.207571867620572,848568.925719630322419],[1537986.720240050461143,852724.602461401256733],[1539445.586261201882735,858856.563774736598134],[1540987.580604053102434,861275.304268120671622],[1549708.263595406431705,856016.544176938477904],[1560523.27642282564193,851997.475955905392766],[1560721.914133217884228,848586.791937271365896],[1555867.87331262556836,838993.74131826905068],[1558683.522587484214455,834871.700636251829565],[1561519.495606142561883,832418.219075969187543],[1573456.772981823887676,826421.692718215286732],[1587147.64578417618759,828377.198021440533921],[1589481.616556657478213,830311.910716710728593],[1591384.661431362153962,830194.313225946505554],[1598004.674751089885831,818785.601505656610243],[1611082.413027388509363,806864.424622660852037],[1614371.794056443730369,802733.236582042882219],[1623212.102941855788231,786992.967490222654305],[1625298.861260731704533,784800.280098438845016],[1630948.951819688081741,785689.720586252049543],[1631895.020653854357079,786556.38330916967243],[1631893.170021765865386,790012.350916550145485],[1632821.625851201359183,792195.921122946543619],[1634792.859936042688787,794431.409511126810685],[1637391.695147576043382,796054.109574313974008],[1640508.562055406160653,795426.131611027754843],[1643725.460028548259288,792231.665357269579545],[1649865.06013156240806,780933.820730343926698],[1654893.234395630192012,777571.873547067632899],[1662195.248385393992066,770571.404974952456541],[1665209.166432064026594,765759.103815038804896],[1670574.697833841666579,760928.003877492621541],[1674243.847481814911589,750193.866173294256441],[1676589.489313484402373,747687.698184991953894],[1682085.181964491028339,745566.941515852813609],[1685418.71594954142347,742570.797840842162259],[1692406.510882203001529,739480.762391670024954],[1697037.697663245489821,728836.003785784123465],[1701431.022567862644792,726370.132184173678979],[1712092.762591226492077,724347.511662773089483],[1725964.358256536535919,714211.004270207486115],[1728978.75466488301754,708677.335680006421171],[1726022.165173857472837,703735.376552421133965],[1726665.464451273437589,702262.299239031970501],[1742273.765239614760503,693458.878269674140029],[1745087.167282114736736,691066.146551412064582],[1748768.121604681713507,691349.54103502817452],[1753057.176047446206212,685757.609439140884206],[1753215.032636216841638,681397.322161412914284],[1756605.506698878947645,677373.034465316450223],[1761535.182982770493254,673559.559867552714422],[1766482.427095640683547,677846.604346381733194],[1769036.121250062249601,678227.745247723185457],[1772198.074790284503251,677844.863187092356384],[1776602.539938842877746,674926.738556133932434],[1794114.982587640639395,656752.0653074743459],[1803283.305938855744898,632326.275990759138949],[1807928.034793755039573,625371.076283312635496],[1809778.320550081320107,621009.305231805192307],[1810427.115660596638918,617250.820408250787295],[1808956.443901072256267,611261.546909650671296],[1814755.466260970337316,596707.150108466623351],[1815562.83676794404164,589352.157589680165984],[1814030.648524498566985,579280.498812426580116],[1811062.426234883721918,574386.845202430384234],[1811591.769235447049141,572597.832546518067829],[1813158.02610295638442,570744.152331811492331],[1815946.399052848108113,569734.70831003121566],[1823550.44171239528805,569623.279041037545539],[1824996.704910778440535,555974.058250984060578],[1827102.433776735560969,553340.537396225961857],[1834326.478591354098171,547714.278493719175458],[1839251.158985394518822,541878.433676570304669],[1842513.256344742607325,539897.252278367406689],[1845516.788142532343045,535739.244996333960444],[1858176.568361973157153,533054.421855971217155],[1860450.484496771823615,531039.066073239548132],[1863669.703747584484518,525644.462082644924521],[1870127.084346019430086,520420.625721825985238],[1871058.433903017546982,517950.141354726802092],[1870599.733656644821167,515444.675388939969707],[1801971.556183929089457,504233.955727642169222],[1709240.906307180877775,490579.715281214856077],[1647289.950337400659919,482409.199668605520856],[1554190.563061249442399,471554.067998189188074],[1460910.535633837338537,462376.7829315289855],[1398637.659179231151938,457199.255359287199099],[1305122.783268389292061,450841.461808137479238],[1242723.625011247117072,447541.229969804233406],[1235228.385502740740776,447195.564382998505607],[1232275.560994392959401,450997.936847389384639],[1224921.97265508514829,455815.767625407024752],[1222104.905784108908847,455687.953032750985585],[1219276.661090990761295,454039.284375983523205],[1217558.465780734317377,451480.000108918582555],[1216162.536925327265635,446365.318288729875349],[1213436.595986178377643,446252.346332879154943],[1210865.039928510086611,453184.091715026064776],[1211344.945674134651199,456346.249364068149589],[1213531.533085090108216,460188.345735429786146],[1213309.355271010659635,461541.137647173425648],[1208199.25633077416569,460268.85719182662433],[1205844.624145507346839,461117.492119738657493],[1204708.339184124488384,463093.84006515936926],[1204776.57463074917905,471084.097341589513235],[1201804.624574908753857,475523.555554205784574],[1205039.007267645560205,477564.387122219952289],[1213466.479167193872854,479447.397962110408116],[1222160.606930949259549,480004.52804230293259],[1224534.104419555747882,483434.866575361113064],[1226627.083209187723696,491954.065438485937193],[1220765.233238094719127,483958.534388202417176],[1217086.25940806325525,483000.425855495443102],[1205429.60236642905511,485418.86274569836678],[1198001.530494433129206,484655.976442028128076],[1196936.809845931595191,486339.025574973551556],[1197176.875228459713981,488072.184676367091015],[1198723.996882294304669,489855.774936278234236],[1200832.795457573607564,512184.145304116245825],[1202933.605431852629408,518257.573903898184653],[1203602.440639367327094,521538.179893118562177],[1203004.156066049123183,522268.598091800115071],[1193514.698665390489623,510482.013991832674947],[1192806.36137248435989,506834.153001044818666],[1193956.524718765169382,503746.625422978657298],[1193240.545186826959252,497290.705680279119406],[1188720.032365785213187,495198.023561468697153],[1185925.762358412146568,496141.973256044264417],[1180952.986595691880211,490533.504286046954803],[1179348.947303463006392,489901.847465853497852],[1152796.892065236344934,499875.72072577587096],[1142552.347308821743354,511608.438801058218814],[1140551.340557210845873,518098.471270328387618],[1142546.584171878639609,523672.033135052712169],[1144734.012443563668057,526495.351286886609159],[1147118.035848129307851,526563.528756718267687],[1149828.882572116795927,524569.783606520504691],[1155557.720550867030397,515745.86391718161758],[1157890.634375507943332,510247.85056844947394],[1163515.75563409877941,511200.367587325687055],[1172406.561976570868865,518614.300696257560048],[1174502.585745747201145,521317.956309850327671],[1165510.560269081033766,518311.777381254767533],[1161580.231589620932937,518364.428542438952718],[1157493.023538401117548,521196.591172303829808],[1153252.573966352036223,526816.19138482993003],[1150940.090459594270214,533271.053228787728585],[1150295.246537781320512,553910.874268304090947],[1151559.816472490783781,557944.971510838833638],[1155849.980523012811318,561042.316247144015506],[1158498.284805301111192,566053.16850718203932],[1158215.04849131219089,568131.552243851008825],[1155388.193209247663617,572214.873841215623543],[1151386.166490486357361,575365.713849230553024],[1147521.943708624690771,576885.120086357579567],[1146656.771414119983092,576370.806399160064757],[1152842.422004909953102,567500.59485693264287],[1152752.587428545346484,564104.89718530094251],[1146445.664456119993702,555091.728958336403593],[1145519.694585131946951,552477.119874731870368],[1145714.42316301073879,543864.87837658461649],[1144845.999598071910441,542005.394835361628793],[1139606.086892994586378,539421.769280700478703],[1133828.139540177769959,532482.552949687815271],[1123828.874554579146206,529942.238658446352929],[1114353.10425018100068,530394.226419938611798],[1109193.335497696883976,533625.55055216839537],[1087255.602797368075699,556769.660515613155439],[1087019.904572939965874,562629.991734497365542],[1075979.953330919146538,583065.824514443520457],[1075971.902976466342807,587498.793404811993241],[1072158.983992105582729,593864.122003584168851],[1068021.040464157937095,594712.533284660778008],[1067007.94052619417198,600806.481034863507375],[1075323.254972147755325,614142.390547389048152],[1080400.037834893446416,625345.068714887951501],[1080617.725512899225578,634260.861022708937526],[1079164.586548809660599,646296.061461195466109],[1080175.733422142453492,651520.464426368358545],[1075095.851460397709161,644558.263047308078967],[1074067.389133103424683,639432.975655000074767],[1075427.199272990692407,634298.439945165417157],[1074705.566856902092695,628418.649947787402198],[1071794.890110119711608,620166.544780748779885],[1066719.91063523455523,611403.479089682223275],[1056056.150555718690157,607092.079122897237539],[1037136.600335094961338,609239.863645058241673],[1034939.223905860679224,610345.414412358426489],[1033587.26775522925891,613329.709104591049254],[1032557.478187929955311,626111.293017611955293],[1029321.408849756000564,617700.463528081541881],[1027653.944929132820107,607938.758936749189161],[1025453.164449657895602,605721.250761998351663],[1021463.881865246919915,605519.210145708872005],[1018357.924114431254566,607065.908554984955117],[1016134.600125923519954,610353.673183115781285],[1011371.420418821740896,610616.97457560535986],[1002479.354581635445356,608009.954206808004528],[998288.472031583660282,609051.437656025518663],[993310.180381966871209,609153.425917837070301],[983234.945832430850714,612034.667088873917237],[971337.803805262898095,612824.680742105352692],[968129.5996693050256,615053.764698303653859],[968331.836222638492472,619286.210009960224852],[970562.62709806766361,621409.103996305144392],[983105.695175032946281,623225.886608508299105],[995249.795556530123577,627707.613318465417251],[1007231.101666061324067,629947.535123379668221],[1006767.926355147035792,632231.59043921995908],[1001360.175506856176071,632946.371197532280348],[973837.880364575074054,628044.076097216340713],[965179.106605413020588,628694.947013953118585],[963673.647086727200076,629516.557840820634738],[963498.484968593344092,634535.058837608667091],[966713.421580244437791,639281.756756966235116],[972030.961480662110262,643679.641865361947566],[973635.706282056053169,647042.238375755958259],[970576.100931247114204,648489.415078222053126],[965647.018641218659468,647592.473848272697069],[963303.068352054106072,650301.74679663288407],[965988.329413007479161,660801.574135710136034],[963768.956587598659098,671545.318251119460911],[960499.682363801868632,661395.1962762970943],[955612.215613003238104,655831.748563658678904],[932495.904328580014408,653702.32658653811086],[928681.046617427840829,650764.178976406459697],[925620.731315843877383,650888.484671117737889],[910957.622272187145427,656533.576252450468019],[904735.685983700095676,659933.109761787229218],[880638.51044140511658,683362.883832306484692],[880522.436192363733426,696454.177449541981332],[882472.868971167365089,704745.702032483648509],[886615.709041952737607,713988.976712634786963],[901813.650539689464495,733807.123573043732904],[906939.447129484382458,737532.384991887607612],[911519.577023678924888,738753.960340909077786],[933133.681799987913109,740173.895207645837218],[949232.813592544523999,742508.659043362829834],[952280.391665756120346,743681.569403669447638],[928653.986286356812343,745452.371704207966104],[907619.235797056579031,744765.277369388379157],[900380.754391953581944,741739.436343436827883],[890908.083140817121603,729010.002823579357937],[885904.865940804826096,719707.53576718410477],[884250.33406005485449,719648.308469754527323],[881137.951652653282508,721127.156131849158555],[878964.637313542305492,727130.295609893277287],[874190.585947121726349,733978.645838204189204],[872208.895463778288104,741749.427569813793525],[871226.564301832346246,753153.911614334443584],[871765.873180835740641,758221.869151998776942],[874221.759645587648265,764645.207266554702073],[881563.374365558032878,777194.861073610489257],[872565.697828235803172,777096.955406273715198],[873905.906712927971967,787789.481584766996093],[877483.056000737007707,799357.078998178243637],[885970.580447729560547,806051.232656385633163],[894501.466304940637201,810841.538775088381954],[902243.91871605347842,817205.360094734234735],[915621.266331551247276,821298.240799367660657],[919989.913622576044872,812273.229800671804696],[931367.3167179801967,809401.160754201584496],[943519.230749233975075,790787.511341018136591],[949448.150763707584701,784012.067431893548928],[951125.082658785278909,783519.624677596031688],[948540.737328199087642,789308.163820178597234],[938952.613341817981564,802029.558190667303279],[938588.163061941391788,806477.466598838102072],[936147.030356452683918,811334.864030483062379],[923401.608190272119828,818476.129987551015802],[921168.244018418248743,821180.813094147015363],[919017.218826826894656,828219.174491357756779],[918126.929690759745426,832758.286033501732163],[919632.852658140356652,837130.723721380461939],[932813.736628322163597,850341.065579879446886],[935870.40576464892365,857360.231842156266794],[934949.835029313340783,864448.880398273351602],[932226.327064947225153,870945.672837974736467],[931479.224764633225277,870945.342148925876245],[932211.674973526503891,861135.171088641975075],[931695.390704481978901,857279.683896099682897],[930173.371000449405983,853035.744717572932132],[928011.722915982478298,849828.891176984878257],[896722.653391515254043,817672.367662379285321],[893892.679289379506372,815941.244875407079235],[883418.873374398099259,813428.83712693862617],[877996.67383864405565,810312.143533417256549],[874998.000080264173448,806109.917752765933983],[870073.523463045014068,795075.820931942900643],[863079.903773205005564,772921.489240651018918],[855212.263767254655249,755071.942848304985091],[849649.99702218407765,778643.744545621913858],[839006.145967069896869,796900.474879082641564],[861371.722986374865286,813972.611830325913616],[862017.433580301702023,816668.64490833831951],[860173.104950820794329,826211.774787215166725],[860850.876276403665543,829068.709080530446954],[863021.337005219887942,833171.111641583964229],[868681.001843980629928,839092.145945629104972],[868484.732005207217298,839720.18667840026319],[862002.874615794979036,837718.289613782195374],[851715.593904654262587,824273.882118333713152],[847707.114184239762835,819978.125698580173776],[845611.884238642640412,819456.592763824621215],[845625.711689105490223,827544.787423513131216],[856554.728838748647831,868525.650677634053864],[858312.638631446054205,874300.273450773442164],[862214.305805009324104,880059.527800947194919],[858667.708748687407933,879741.978092686855234],[840984.450300047406927,871246.966907706693746],[835337.23477265262045,877114.023510841070674],[831506.590297319344245,906725.63000269792974],[823423.077983565395698,918536.232925608754158],[809417.136160168098286,928494.103667965042405],[795504.937867085682228,933450.552555373404175],[790323.722056510159746,952256.437741058878601],[794624.482262484612875,964078.225333056296222],[800999.133654200239107,969500.734358249348588],[806754.030214733676985,971830.490661160205491],[812036.979526457609609,970427.754093747586012],[812134.222392635769211,966028.66320922493469],[808013.996975362068042,954371.693309155409224],[812762.443579423823394,953069.952300462522544],[831464.675634143291973,937986.448081428417936],[835632.992860338650644,936678.165171553147957],[843809.139077157597058,941929.495751674752682],[848236.637036798754707,941566.958230723859742],[858590.121203679358587,936766.686437381082214],[861979.010286929085851,931269.66324389341753],[871734.386619198136032,920420.262010390055366],[870425.754536717780866,926607.065668018418364],[859847.019239738350734,939873.548061583889648],[853876.688718842808157,944214.846522336825728],[843187.455308050964959,945362.641360257635824],[836463.269895894569345,943420.180179765098728],[833697.868921023909934,944146.797319326433353],[827957.200798306730576,947651.580038820742629],[823187.596586555242538,953248.13092393160332],[818678.430574189987965,965284.978806376690045],[817766.736613479326479,970832.00160377449356],[818205.619989431463182,974912.949845335329883],[821693.177852275781333,981824.496377719682641],[825844.391916253021918,984085.391426317743026],[831963.280629735672846,985360.509331569774076],[833873.205881492584012,986745.647196356789209],[826337.668864268693142,993802.89080963213928],[822807.523577539715916,993913.176663282560185],[810265.8477400256088,984484.558366618235596],[807762.103559522074647,983811.960264117107727],[806780.716523387702182,985774.39032218081411],[805780.762399789877236,985978.092772997915745],[801988.839661384467036,981219.65170420659706],[799108.861444825306535,979150.206920506898314],[788454.545627005165443,964405.47793272708077],[786566.602226426475681,957212.585134897264652],[784030.869474586099386,939630.070146527839825],[782149.623002830194309,936946.088699860381894],[770091.031718249083497,932313.95730316825211],[762835.298009693506174,922053.137268778285943],[746647.997916652355343,940917.875321839819662],[741535.353628794546239,956685.405600878875703],[730966.32988376612775,959997.110890643903986],[719036.637567707337439,969475.307376329903491],[714775.096612148685381,977534.049425453296863],[722461.11425183317624,993115.123496935819276],[732778.85879952670075,1004621.149877996766008],[735077.336340054636821,1019006.093328775954433],[736570.895940540940501,1022040.139915146166459],[753199.158329520141706,1024723.562338051036932],[764283.806194117874838,1031347.727583040716127],[753347.533533307840116,1032577.179184998269193],[746570.366233071428724,1031854.067192313144915],[734213.758080997038633,1027525.789304327568971],[721421.494589940179139,1038233.198644129792228],[715079.789393140003085,1047711.738271891023032],[713398.212275344412774,1055573.25679117674008],[716181.05559239606373,1061953.351967677939683],[718661.569178385310806,1077501.912533988943323],[720158.053833007928915,1081356.055053916759789],[723242.189932755660266,1086198.443499801447615],[729107.270410215482116,1089193.872552705928683],[734718.823111446225084,1099204.717541877413169],[737198.114616225473583,1106272.200862604193389],[752859.683173656696454,1136399.938578549074009],[760492.950892032356933,1148931.799075362505391],[775445.121682484517805,1168508.180794043699279],[771010.006204550736584,1167580.636624778155237],[768618.891026437049732,1165965.212064074352384],[766442.280135038308799,1166292.251890617888421],[764484.59073669963982,1168565.038750807521865],[762753.789088611258194,1173158.749820993980393],[761250.109023143188097,1180090.383582268608734],[760036.065527732716873,1177145.694025316508487],[759110.138271375675686,1164337.562473261263222],[757121.326878370018676,1153435.112917393445969],[754209.976286277640611,1145938.814531199168414],[746494.685949197271839,1130809.643412611680105],[742127.751171068171971,1124997.145225535146892],[739696.37135765037965,1130781.482196238124743],[742374.241278770612553,1140357.149738744134083],[746779.170992248575203,1147854.572888638591394],[748051.469313224893995,1158379.156034916872159],[745051.352248485549353,1171189.80111568281427],[743373.476672422839329,1181461.567353697726503],[743002.857060201233253,1189189.493953946512192],[744265.609457465121523,1202514.801266894908622],[749137.131747333914973,1216667.297737564193085],[749966.677384599810466,1224418.984831642126665],[749823.95650593994651,1231578.52482101530768],[745778.103570919251069,1242406.02827554801479],[738362.421693688491359,1239884.348484562942758],[726335.272044971352443,1245055.096378288697451],[723136.918521715328097,1257338.415035351412371],[712759.471851616632193,1261709.984421164030209],[707622.420777467195876,1270680.435461746994406],[687128.37502672104165,1279263.299861713545397],[658595.062434212653898,1303123.435222181957215],[643289.95109168975614,1303369.600153021747246],[643622.311868691933341,1313958.058829992078245],[640927.779542950214818,1320597.086492098169401],[642603.817067558644339,1326136.314250037772581],[628745.861771672265604,1334470.949268377851695],[634771.945748560479842,1352960.551277671009302],[616790.348114099120721,1360460.041218297090381],[624340.15635570208542,1373121.458913243608549],[620932.899585076142102,1382134.449903032975271],[608311.361525751417503,1408319.713202496990561],[573382.813039326923899,1492710.882278903387487],[566109.778025652747601,1506262.837270276388153],[568218.580205834936351,1514310.048782218946144],[560871.770097486907616,1525461.686385757988319],[547446.007649855921045,1549506.126737339887768],[526397.427625324809924,1568132.438434707466513],[522528.546621316694655,1574033.821465144865215],[519638.903914565045852,1582247.25694149825722],[518124.610182555858046,1592237.504390203626826],[516768.090933848347049,1595660.613760663662106],[507389.866824551892933,1604640.260312665719539],[504847.627988992026076,1609883.021732142660767],[498440.333149234123994,1616361.729379325173795],[492794.936581524205394,1619453.035762173356488],[490965.081770080490969,1621598.457033581333235],[485922.935078992741182,1639420.584710792405531],[489423.054986448260024,1651223.515448599588126],[489012.020739798608702,1654411.210105976322666],[478924.616027907817625,1668768.788899020757526],[468348.020769941853359,1681198.040394171606749],[440745.803772829123773,1670345.068990806583315],[418167.650284113478847,1667103.18470167950727],[421194.864677984267473,1658576.3946043162141],[418618.528372120810673,1653042.647608651546761],[414301.304009129758924,1650945.402479582233354],[407692.867877538432367,1652267.380680545000359],[404735.517469949088991,1632559.529854389140382],[396297.071527118445374,1619456.042808954836801],[382978.51225993654225,1621234.001608260674402],[353848.424087840947323,1607585.12654557893984],[343178.690781601355411,1599716.693003670778126],[338715.571534080547281,1601828.669490723870695],[342168.403302556253038,1609819.901679788483307],[340236.751460552914068,1636644.257418031804264],[292610.87025585770607,1707177.379396356875077],[290997.281877828878351,1721367.931226658402011],[273669.591905495501123,1735883.48539788229391],[379111.438496145652607,1717627.452382621355355],[431756.561034773476422,1709633.584790523862466],[537342.971045643556863,1695772.946965144248679],[643265.088030025479384,1684755.951241662027314],[749443.889301312970929,1676590.816796818748116],[802606.021689802524634,1673579.569073415128514],[855803.832692800788209,1671283.303097436204553],[962268.024188228766434,1668837.247265194077045],[1068760.723525997949764,1669254.439043389167637],[1148687.057013591518626,1671449.465628471923992],[1202051.038096726406366,1673814.711426296271384],[1282025.220290390076116,1678711.45593528682366],[1335280.665738263633102,1682874.454413296189159]]],[[[915366.404537343420088,625757.369387678103521],[950314.187332560890354,611390.554968090960756],[985529.12969839584548,604300.815348913543858],[1011435.023103049607016,596163.495532316388562],[1027369.882205652073026,593746.701959095546044],[1033134.412241300218739,591995.137533925240859],[1036874.865506065543741,589160.343003139947541],[1041318.698891706648283,582282.80764562159311],[1049071.3772612309549,565892.080500240204856],[1054961.964968181680888,555440.727837171172723],[1076827.82502797874622,524517.985105429776013],[1079072.548328433884308,519406.654940788983367],[1077090.830386624205858,517718.670222071174067],[1077263.166402058443055,514688.144324985565618],[1084698.906650850083679,502234.586408466217108],[1098513.595534731401131,491203.66009724792093],[1109290.591765176039189,486045.669644095178228],[1132041.24986993521452,477718.020209874084685],[1146114.503206291003153,469588.643564223893918],[1150561.830148815177381,463802.668346223712433],[1156766.70774763636291,458247.080743587750476],[1159406.100320825120434,454364.43800481170183],[1164825.516743146581575,439833.758776491682511],[1174513.006651313742623,426019.802677222643979],[1184984.091922411695123,399504.567085559421685],[1186690.778280857950449,401810.369699782517273],[1187502.397392205428332,409845.770748315437231],[1188537.060470695607364,411670.918326846323907],[1190539.872500142315403,412599.198613258660771],[1192539.467444961657748,409564.180830819183029],[1194539.771222318056971,402557.853618445573375],[1201276.942730296636,386010.908506749605294],[1199472.670779179781675,381038.879466208454687],[1197721.786457288544625,380467.582745843741577],[1189381.631571137579158,382463.126175779732876],[1186623.542713090544567,379352.554751570976805],[1182987.081227709539235,373102.842160246276762],[1180346.875327219022438,370550.435136895976029],[1178711.656421782681718,371688.581643659912515],[1154599.796411508694291,376809.521491725870874],[1139736.237587809562683,381928.29354705294827],[1120192.857637057080865,390194.175740336824674],[1096845.683856935007498,398816.967211660463363],[1083531.034403429366648,404838.029336338571738],[1072446.532096145441756,411100.462403613841161],[1064748.783101784531027,416473.722802279924508],[1063253.970108352834359,421103.128128533309791],[1063563.849069530144334,423299.143238471879158],[1078116.675348167307675,438373.151255152362864],[1084226.057731093140319,446458.411311480449513],[1086512.745626157848164,452610.755803706066217],[1087631.463569648098201,459100.009516062389594],[1086593.101609737146646,466983.042963053507265],[1082770.714473439380527,452014.980034868989605],[1078561.037069179816172,444808.55519461305812],[1060951.571766248438507,441994.337366722407751],[1046691.218032983131707,442649.307906254834961],[1039591.51763590821065,436236.696386864001397],[1037459.210502401809208,435418.032190304656979],[1033506.439952512853779,437503.081205165712163],[1024859.054065627860837,445931.307522463263012],[1012537.457815864938311,452850.102194412553217],[1013745.553321763407439,454562.966064550564624],[1021746.455687231617048,458141.951164199213963],[1025959.733439156785607,463336.480495154391974],[1025197.685345074627548,464159.047204626374878],[1022350.221143194125034,463831.02816882065963],[1019840.681637130444869,464870.491581773734652],[1014833.826817110762931,471559.970242406416219],[1011985.224517783732153,473384.873670953849796],[1005949.965677046100609,470354.331331474531908],[1003524.594705411349423,470190.973553658463061],[1001177.289866166538559,474617.461631292884704],[1004691.593451358377934,487240.741074570978526],[998523.579124953248538,483517.402267049939837],[996488.439927662024274,484741.745517518604174],[994559.842650324339047,488052.204450219520368],[992751.027300191111863,489443.924556000740267],[987740.520926016266458,488775.77885290706763],[982321.075432860176079,491846.557955722033512],[980422.951320990221575,490653.159268254821654],[979685.016697515966371,486245.793205499765463],[977874.351658649509773,485127.547496871382464],[969627.35828934086021,492612.919804984820075],[967746.308792473282665,492856.391405936155934],[963690.615630970569327,487194.638038605451584],[962287.943567274254747,486854.309090778930113],[960171.03142575151287,489334.274816036515404],[959179.883967892499641,503161.771597129409201],[959661.868814558722079,507084.397584905789699],[960799.163841771427542,508394.601326306350529],[967989.183420075802132,511549.435057772032451],[988599.695108386687934,514892.885597832093481],[990317.978905111551285,517352.964726095669903],[974895.063541032723151,516130.248325792781543],[970891.369258620194159,518030.078770524414722],[966618.632270058151335,522779.806200314254966],[962111.268728955648839,522741.631505764147732],[959741.541300968732685,524294.06450094957836],[957273.355752198142,527727.331540804938413],[950891.573587015620433,540278.444750219467096],[946504.565478658885695,543489.796510710497387],[939003.220322999055497,545566.002531774807721],[935158.959007072029635,547984.239289811579511],[933509.778990146936849,546959.516807031701319],[931892.495694957557134,543417.656312081031501],[929768.391405269037932,541233.616342518129386],[924599.950915074907243,540053.884395975619555],[919902.003609923878685,541039.670490669435821],[916277.268988969502971,544512.263303846120834],[914169.280855592805892,548852.716491818195209],[913417.231154194800183,553680.663802411872894],[915562.14702321193181,560079.428386785788462],[915565.540699318400584,562620.470328688621521],[914705.952446505427361,565613.646231290884316],[910670.506936875754036,569923.676142177311704],[909323.572028362890705,568984.376298138289712],[909030.664045777986757,565229.593965161591768],[907659.097397138597444,562505.380259766825475],[903367.457483723410405,560484.242100250441581],[899969.440653139725327,564226.988528005196713],[897792.873250701813959,569370.394750124658458],[895195.843701369594783,573051.901320642209612],[880362.410653579281643,573370.131935538025573],[873417.184961640974507,568840.748978900257498],[870129.10505558992736,568545.062220168299973],[866756.202891555964015,569747.776028045918792],[866171.925389071693644,572253.74020023830235],[869550.406158600002527,578985.676211940823123],[869001.522076708846726,588104.979171720566228],[868229.587118293391541,590409.480635594227351],[861446.670690279570408,591983.172238147235475],[860351.381883938331157,594211.159800637513399],[864706.070664092199877,605137.810407433775254],[867024.418647728161886,607163.825641445699148],[870058.351877437904477,607873.339433042914607],[883563.084849831066094,608439.778525105677545],[888015.747871630825102,606761.983863480621949],[894377.107215059339069,599911.36350217461586],[891929.916811119415797,610104.418456349056214],[891675.308521761675365,614678.169861109810881],[896249.568920553196222,619741.863307129358873],[892014.814601862570271,621342.016358875320293],[876111.620272780302912,622898.036698040668853],[877352.881060337764211,614893.045245209010318],[867786.582621781853959,611033.422824573819526],[860752.480264955665916,610527.651779150706716],[854058.075179985375144,611368.654121898580343],[848654.204248082707636,613985.235403351834975],[839633.113896167022176,624146.649582864600234],[834126.765701447846368,634054.410367643460631],[834574.201429066481069,639345.892017830978148],[837940.323073602980003,644796.502095620031469],[842233.533203556202352,648446.594255693256855],[852199.570860916050151,651439.106959300115705],[865093.22763205843512,651381.369915634044446],[879403.461520647979341,646582.101133698015474],[915366.404537343420088,625757.369387678103521]]],[[[1192941.669118572724983,433566.721467089722864],[1192072.385432407259941,432323.45970633754041],[1180330.878509443253279,439763.402821957191918],[1172321.114728014916182,449788.137071250297595],[1168925.17723714094609,455953.399572723603342],[1184599.718056382378563,440886.549263107066508],[1192442.742401364725083,436005.802337875415105],[1192941.669118572724983,433566.721467089722864]]],[[[1188845.52663461654447,418786.468360226484947],[1185864.57778348447755,415826.997572763997596],[1184205.144346246961504,416146.442638850770891],[1182816.420197251718491,418095.458820033993106],[1177378.651234837481752,437422.699158614792395],[1179422.149059862829745,437079.064784855465405],[1186006.751886379206553,431236.095279234752525],[1184646.590149151859805,428777.920802115579136],[1189618.619944349164143,423137.862531332822982],[1190942.527804270852357,419043.535684218397364],[1188845.52663461654447,418786.468360226484947]]],[[[1133717.427520094905049,503396.086762466002256],[1134782.933806709945202,501109.059178478433751],[1118463.020146647235379,509362.053188249003142],[1111489.571111967554316,514321.634578712517396],[1106988.443806242430583,520021.211143267399166],[1098717.904719481943175,525346.44397385942284],[1097306.287104761693627,527838.680047010304406],[1099184.406518376898021,529736.932130340137519],[1104690.836618273984641,528714.330702551524155],[1113837.845658456208184,524779.116791356471367],[1122098.642484788084403,518245.037981439265423],[1133717.427520094905049,503396.086762466002256]]],[[[1078134.785948272095993,562318.953932073549367],[1071548.51933156256564,556599.569572158157825],[1069627.403787805698812,569180.250845747883432],[1071727.199326429981738,573780.032576670637354],[1072007.418075924739242,578453.738474290003069],[1075872.199280710658059,572811.269656287040561],[1077462.488049219362438,569011.765251193311997],[1078183.043726871721447,563727.755005972576328],[1078134.785948272095993,562318.953932073549367]]],[[[1058368.135002313414589,564923.69426261621993],[1057651.314569642534479,559042.842486575478688],[1052934.322555347112939,568523.402256635716185],[1045680.452055824687704,588646.857499802019447],[1046575.087858156184666,593379.105559597141109],[1049648.435165556147695,600098.915403577848338],[1052500.286319232080132,600542.381865868694149],[1057149.94035133975558,597470.249544186401181],[1061234.107577968388796,591951.474350547301583],[1064756.592316116672009,583990.02901329647284],[1066066.2145979416091,578762.49567011022009],[1063364.177363453665748,572368.917528694611974],[1058368.135002313414589,564923.69426261621993]]],[[[993306.045589011511765,481966.126673570717685],[995335.147469766903669,471920.389493913331535],[986394.387010956648737,473546.370906709809788],[983282.624990702024661,475505.08012056251755],[983166.823335056076758,480328.912571853899863],[984845.024918266572058,484849.555327230715193],[991618.944221268524416,483196.813535571331158],[993306.045589011511765,481966.126673570717685]]],[[[953630.018474123789929,510160.748895571508911],[950791.095825322088785,509692.592164308589417],[946249.483639046666212,511083.021234734798782],[941167.64979913062416,514322.007921693089884],[932296.918250156799331,522924.06106252776226],[931405.397711351746693,524852.728282662574202],[932236.01395522034727,526484.786706859013066],[934790.027883008937351,527822.24566017522011],[935395.484915070701391,530049.061328446492553],[933387.237709066597745,536172.836290160776116],[940609.507292031659745,539933.51774770161137],[946899.228146235225722,536675.032073365640827],[949738.232407445670106,532732.897315247566439],[953145.290998932672665,525729.546243967255577],[954641.830517807626165,517861.399406791839283],[954768.013750605517998,512482.210864650027361],[953630.018474123789929,510160.748895571508911]]],[[[866488.73133451922331,719684.079302895697765],[865283.813854442094453,717856.882789805415086],[862512.575833491282538,717938.576579909771681],[858173.372451416449621,719934.399889191729017],[855019.800068902783096,724162.226345506147482],[851461.43695898365695,737153.476265475619584],[853393.250190658727661,741565.972094647120684],[859813.197162016062066,746018.655480398447253],[862076.79650435061194,745440.975067240302451],[862801.98034282354638,742050.988184570567682],[867398.95023538521491,732095.501347440294921],[866488.73133451922331,719684.079302895697765]]],[[[839146.956875186064281,823894.928578764433041],[833895.332565056276508,822579.303458879468963],[836451.271690685884096,832017.691004035877995],[835200.784489270066842,841822.612098814104684],[835461.214891185285524,856991.958333470392972],[840831.314118320238777,866354.892998981289566],[848751.598832838702947,866373.890170774771832],[848522.241163484286517,861565.297436445835046],[842414.924201123649254,830267.416789277805947],[839146.956875186064281,823894.928578764433041]]],[[[828847.682641764869913,884392.267798110726289],[830661.860950944246724,848716.894808827666566],[830031.177418614039198,837344.55002227530349],[825231.889725782792084,830060.674080750904977],[821571.045328698935919,817710.35086802218575],[817625.539398464374244,812250.996994607616216],[814375.717505395179614,819837.457960990024731],[814538.974930270109326,832238.581020280369557],[813016.079880114179105,846882.864463711739518],[815089.548351094825193,865219.62005962850526],[813466.365112876868807,863921.645481014042161],[809000.280240653897636,856016.826162535115145],[804350.5263277530903,855652.056560092489235],[796444.906623423914425,865149.469571376219392],[792607.027626728755422,872739.631384336389601],[792263.341030560899526,880504.69791025982704],[787190.210974041488953,888888.662636691005901],[786758.700885515892878,891781.280780375469476],[787337.639118765247986,894796.594223379390314],[792149.146241916459985,902708.172990897088312],[794188.253038275637664,908095.585774479201064],[796260.399839769699611,919275.807640831684694],[798251.588419615989551,923581.189211141201667],[802412.994207920739427,922781.368635713704862],[809687.94085765175987,917369.613861500751227],[817283.26898351078853,911518.320210219128057],[824185.175698158098385,903847.681895678397268],[828847.682641764869913,884392.267798110726289]]],[[[801094.380054314853624,837500.722879223641939],[798725.610540252178907,832488.566520024091005],[787073.13150043936912,848741.607584104291163],[780953.975574549054727,862063.268862262950279],[780048.384115434251726,867713.496452401974238],[780481.025126105872914,870863.431633915752172],[781715.367307026521303,871975.734957298031077],[785633.19791072839871,869563.775203629164025],[797942.674298109253868,854562.553444999619387],[801281.969318579998799,847616.054579821997322],[801094.380054314853624,837500.722879223641939]]],[[[788589.959202930214815,921682.601538651622832],[788099.041083123534918,905132.025871240068227],[781187.647638996597379,905465.508023152360693],[779313.259184506023303,906695.061879256973043],[778211.289599275682122,909090.345069052185863],[777885.696443798602559,912660.477412797044963],[779211.693873380427249,916880.728266905294731],[783666.530871320865117,924847.60105726972688],[783955.271252748207189,928320.519202675437555],[784883.319279043236747,929772.571043549804017],[787552.058097974397242,925535.60070657171309],[788589.959202930214815,921682.601538651622832]]],[[[778107.260966348461807,892349.156608801451512],[777062.6675371323945,891506.211739932186902],[774366.953914608922787,893128.296440209494904],[771852.209444808308035,896169.106274398392998],[766385.877776257577352,908182.065559532027692],[765693.932211370905861,913856.662049221107736],[766651.78153668763116,914808.129982757614926],[769929.694085267488845,913122.861570858862251],[776433.096457581967115,899194.696954741724767],[778107.260966348461807,892349.156608801451512]]],[[[743387.174829448689707,913736.43085486732889],[742037.760593413375318,913428.289625822217204],[737727.510626185452566,915023.785393497557379],[724382.523759337374941,934676.142586144036613],[714570.53160175960511,942160.838650177814998],[708194.894424272235483,951883.408284195815213],[701517.262797803385183,958273.729498549015261],[706453.922891651280224,967679.939247122383676],[710143.248909193789586,966246.521215453743935],[722838.261781887384132,957569.271052550524473],[738651.521797211025842,943995.344460716703907],[750087.904229177860543,921961.471049055107869],[748986.700678339228034,918948.85484721348621],[743387.174829448689707,913736.43085486732889]]],[[[731382.012209233129397,1122117.766849564388394],[731329.279085169662721,1125963.742397075984627],[734802.324075673008338,1134338.780552792130038],[744416.747471038019285,1151773.164618134032935],[743698.707381463143975,1164603.657721853582188],[740582.630482000531629,1177318.02308863773942],[739720.73061525542289,1184146.562371587846428],[739791.697880620835349,1191908.201803672360256],[740807.34391156793572,1199104.620089389383793],[742768.77727432642132,1205744.755284137325361],[748886.41908706666436,1217513.034872495802119],[744085.30605858808849,1206379.567685298155993],[741533.355417601997033,1195890.643693447811529],[741606.882846006890759,1183579.575113284401596],[745816.296408004593104,1159950.161209841491655],[745515.879462925600819,1150259.924407749203965],[731382.012209233129397,1122117.766849564388394]]],[[[731382.012209233129397,1122117.766849564388394],[731507.991172090405598,1113291.95720178540796],[721317.258526150602847,1099094.059740458615124],[708941.504087067209184,1092511.455759780015796],[706539.135312123689801,1095007.277430325280875],[712253.823259495897219,1101854.154074738267809],[724571.344132052152418,1113588.081027463776991],[731382.012209233129397,1122117.766849564388394]]],[[[722844.178351210663095,1003281.089843701454811],[715594.975834978977218,993402.279496830189601],[712385.343889761948958,991104.082927177310921],[710958.774126811185852,992486.349879169487394],[706875.345897573395632,993441.746425913996063],[702873.69894239329733,999967.445899975253269],[699612.605668516131118,1002685.704753220197745],[697346.319962452398613,1002961.194802670856006],[696073.84968338382896,1000778.76090416428633],[695391.429963247617707,992251.810556460754015],[694110.63705405080691,992677.719628209830262],[692928.331498990766704,994532.695080720004626],[691848.91278962418437,997821.380253523821011],[691799.010907009826042,1001099.542364111286588],[692775.857528967084363,1004363.501748419832438],[696256.086041889619082,1008610.110981987789273],[706783.677431865595281,1017200.193182965507731],[709924.62831477727741,1018660.200977638713084],[713203.237411012523808,1018085.301893832394853],[718245.08285753778182,1013440.460245064808987],[722844.178351210663095,1003281.089843701454811]]],[[[681751.413807781296782,1064159.272502810228616],[680251.500126121332869,1064120.256158610573038],[680546.768790823407471,1071268.890719740418717],[684245.102820576983504,1081077.605611115926877],[693670.907593860523775,1078416.089264717651531],[693048.849715677788481,1074312.249618435045704],[690111.405390685657039,1070828.638114579254761],[681751.413807781296782,1064159.272502810228616]]],[[[655229.320704138721339,784481.871555015561171],[653986.548535049310885,784354.381033069454134],[651874.732018248876557,786821.36670513660647],[650575.804269169224426,790655.086923490511253],[650328.877214345848188,800410.72972224059049],[652036.465326169738546,805833.116867861710489],[657559.591978419921361,799251.61676779948175],[655229.320704138721339,784481.871555015561171]]],[[[616843.114313793135807,925422.717692229314707],[622758.080734171904624,914580.074660884565674],[624032.367989841848612,905199.030020000529476],[622329.908756097313017,894381.371703435783274],[611251.474113571457565,891123.077003144659102],[605874.446509482339025,894881.530144513701089],[603372.691298118792474,894471.856599674676545],[599388.881081161671318,891527.120278180576861],[603776.763566630193964,889688.546403452754021],[609653.821920337388292,883827.428129215841182],[614640.461838972987607,876451.257358132512309],[622375.951180888921954,874575.31119466573],[632439.985154763795435,868919.731375543982722],[623845.769004423404112,860823.58731245668605],[622251.428481430280954,855901.628299761214294],[631074.867197128944099,841244.431696176645346],[631749.991575966938399,837701.564217321458273],[634875.495856094639748,836746.065107278642245],[642363.851058404659852,837310.457738598342985],[643221.177521503879689,836139.65803992934525],[642993.152920483378693,833262.290255849948153],[637837.50753562815953,825541.685889067710377],[638200.582809985848144,823896.405437754117884],[642231.292926471447572,822317.095799221657217],[650140.03251522150822,821677.281635239487514],[651358.920974041684531,813535.561570910736918],[643651.782089339569211,806783.074016143451445],[630726.423482211539522,817189.275343130342662],[625387.734515335178003,827005.232372908387333],[622616.52521156007424,835932.326285110553727],[618832.016692084958777,841157.611901947297156],[607147.469148240750656,853035.694800059660338],[590111.729678461328149,878099.13711095880717],[585515.456516466801986,881911.38293015176896],[581409.57635123282671,891622.661864486639388],[580371.66476179449819,896213.761682480690069],[580761.363995986292139,899194.801797770196572],[582809.759892056928948,900602.033714917022735],[588553.483141693519428,901151.852763482602313],[589035.576091128168628,905792.111018377938308],[568099.13700600201264,915788.34838418988511],[565842.663369360612705,917662.226621668902226],[563574.560680573806167,923557.464808506192639],[565152.167528208345175,924245.984613765031099],[576947.077565420418978,922180.112068330519833],[589920.772427560063079,923763.483808961347677],[597940.424455243628472,925160.322381223901175],[601241.365171682322398,927436.802495582844131],[607914.423527414910495,930174.515251419972628],[610533.144821620313451,929764.872900571557693],[616843.114313793135807,925422.717692229314707]]],[[[566718.765578027348965,1034219.639594332198612],[572048.177632422419265,1027125.602877731318586],[586701.862564458977431,1029979.69251891609747],[589297.985043610096909,1028942.01898351602722],[591787.413608390139416,1026195.66158745426219],[596824.926842430839315,1012181.664507114561275],[596765.771036394871771,1003224.279967726091854],[595180.017450018553063,1000150.43362296721898],[592292.55435374751687,996843.059459098731168],[568057.047645533340983,984791.941607790766284],[567325.187786420807242,983487.136204424547032],[567665.017148201237433,982176.170316095813178],[569670.894815841573291,980617.14925662544556],[574299.182319092913531,980370.773142796824686],[592829.434274437371641,982242.069850437575951],[594047.613962674047798,984601.810153890168294],[596292.383066068985499,995623.875695701222867],[599305.831014745985158,1001319.987872875877656],[599914.657791370060295,1005759.320181171991862],[599185.906406685709953,1016528.698110239813104],[599654.362302978057414,1020792.040266057359986],[612330.023257141117938,1020571.023259976063855],[620543.604675774695352,1023846.691118990536779],[629182.853769528795965,1030514.204727371456102],[631004.806809006026015,1030164.681489671114832],[628789.987365797744133,1017069.46253220771905],[627345.340204786974937,1013109.24203914089594],[618286.285612368723378,997626.856835589976981],[612652.636462945956737,983811.683361378731206],[609301.488303279038519,969971.96098246681504],[606974.637645896524191,946800.374602602329105],[604371.848153098253533,939121.731839664862491],[600389.223050989559852,934586.425017062341794],[577354.384331689099781,928094.961078613763675],[565905.439116349909455,929682.386267701629549],[556385.531619847053662,938319.51957394357305],[552069.992160873487592,944029.494748108671047],[556311.647021181765012,950054.632107883575372],[558836.854205281473696,950117.54045053711161],[565897.67472093179822,948195.315592188970186],[571222.846892999717966,945306.61975504970178],[573687.255160800763406,944978.282021567691118],[573404.620050355908461,946514.335333836381324],[558744.996890590176918,959995.267919174162671],[547742.744141410570592,966552.373674657312222],[544851.13794877869077,972997.564723920309916],[545209.464942245045677,977751.823323556454852],[544561.713633071747608,980483.39262622455135],[537097.095716447802261,997923.307829020079225],[535972.071325579658151,1004643.082908383919857],[535713.57993950904347,1014007.275857055443339],[536648.461999936262146,1023483.510678737889975],[540405.218531663762406,1038637.706142233568244],[541573.595534941647202,1040188.199096771539189],[545251.970877791754901,1039700.24605310743209],[551446.065337039879523,1037178.59802956727799],[566718.765578027348965,1034219.639594332198612]]]]}}
]
}
